NORAD_CAT_ID,OBJECT_NAME,OBJECT_TYPE,EPOCH,MEAN_MOTION,ECCENTRICITY,INCLINATION,RA_OF_ASC_NODE,ARG_OF_PERICENTER,MEAN_ANOMALY,BSTAR,MEAN_MOTION_DOT,MEAN_MOTION_DDOT,TLE_LINE0,TLE_LINE1,TLE_LINE2,SEMIMAJOR_AXIS,PERIOD,APOGEE,PERIGEE,DECAYED
55411.0,STARLINK-5605,PAYLOAD,2023-11-21 12:52:23,14.98349391,0.0002429,70.0001,20.4567,262.476,97.6123,-0.00023137,-2.854e-05,0.0,0 STARLINK-5605,1 55411U 23014W   23325.53638657 -.00002854  00000-0 -23137-3 0  9994,2 55411  70.0001  20.4567 0002429 262.4760  97.6123 14.98349391 46351,6950.133,96.106,573.686,570.31,0.0
55411.0,STARLINK-5605,PAYLOAD,2023-11-22 11:18:16,14.98334665,0.0002839,69.9999,18.0998,268.689,91.3944,4.1339e-05,4e-06,0.0,0 STARLINK-5605,1 55411U 23014W   23326.47102632  .00000400  00000-0  41339-4 0  9995,2 55411  69.9999  18.0998 0002839 268.6890  91.3944 14.98334665 45553,6950.178,96.107,574.017,570.07,0.0
55411.0,STARLINK-5605,PAYLOAD,2023-11-22 12:54:24,14.98336304,0.0002834,70.0001,17.9316,268.3435,91.74,5.8873e-05,6.1e-06,0.0,0 STARLINK-5605,1 55411U 23014W   23326.53778460  .00000610  00000-0  58873-4 0  9994,2 55411  70.0001  17.9316 0002834 268.3435  91.7400 14.98336304 46508,6950.173,96.107,574.008,570.069,0.0
55411.0,STARLINK-5605,PAYLOAD,2023-11-23 11:20:18,14.98323953,0.0002438,70.0014,15.5767,252.3392,107.7501,-5.1372e-05,-7.06e-06,0.0,0 STARLINK-5605,1 55411U 23014W   23327.47243466 -.00000706  00000-0 -51372-4 0  9996,2 55411  70.0014  15.5767 0002438 252.3392 107.7501 14.98323953 45708,6950.212,96.107,573.771,570.382,0.0
55411.0,STARLINK-5605,PAYLOAD,2023-11-23 12:56:26,14.98324527,0.0002494,70.0013,15.4086,255.7167,104.3715,-4.6737e-05,-6.5e-06,0.0,0 STARLINK-5605,1 55411U 23014W   23327.53919443 -.00000650  00000-0 -46737-4 0  9995,2 55411  70.0013  15.4086 0002494 255.7167 104.3715 14.98324527 46652,6950.21,96.107,573.808,570.341,0.0
55411.0,STARLINK-5605,PAYLOAD,2023-11-24 11:22:19,14.98324252,0.0002628,70.0008,13.0522,250.0958,109.9918,-7.7885e-05,-1.022e-05,0.0,0 STARLINK-5605,1 55411U 23014W   23328.47383735 -.00001022  00000-0 -77885-4 0  9990,2 55411  70.0008  13.0522 0002628 250.0958 109.9918 14.98324252 45852,6950.211,96.107,573.902,570.249,0.0
55411.0,STARLINK-5605,PAYLOAD,2023-11-24 12:58:27,14.98324123,0.0002627,70.0008,12.8838,250.6047,109.4828,-7.732e-05,-1.015e-05,0.0,0 STARLINK-5605,1 55411U 23014W   23328.54059775 -.00001015  00000-0 -77320-4 0  9998,2 55411  70.0008  12.8838 0002627 250.6047 109.4828 14.98324123 46801,6950.211,96.107,573.902,570.25,0.0
55411.0,STARLINK-5605,PAYLOAD,2023-11-25 13:00:27,14.9833304,0.0002391,70.0012,10.3598,253.7939,106.2957,0.00015549,1.763e-05,0.0,0 STARLINK-5605,1 55411U 23014W   23329.54198719  .00001763  00000-0  15549-3 0  9993,2 55411  70.0012  10.3598 0002391 253.7939 106.2957 14.98333040 46956,6950.183,96.107,573.71,570.387,0.0
55411.0,STARLINK-5605,PAYLOAD,2023-11-26 11:26:20,14.98332267,0.0002358,70.0013,8.0021,244.7243,115.3672,0.00013692,1.541e-05,0.0,0 STARLINK-5605,1 55411U 23014W   23330.47662513  .00001541  00000-0  13692-3 0  9996,2 55411  70.0013   8.0021 0002358 244.7243 115.3672 14.98332267 46150,6950.186,96.107,573.69,570.412,0.0
55411.0,STARLINK-5605,PAYLOAD,2023-11-26 13:02:28,14.98332058,0.0002217,70.0013,7.8324,248.0307,112.0617,0.00014635,1.654e-05,0.0,0 STARLINK-5605,1 55411U 23014W   23330.54338503  .00001654  00000-0  14635-3 0  9996,2 55411  70.0013   7.8324 0002217 248.0307 112.0617 14.98332058 47102,6950.187,96.107,573.592,570.511,0.0
55411.0,STARLINK-5605,PAYLOAD,2023-11-27 03:27:43,14.98310452,0.0002674,70.0016,6.3167,267.0641,93.0212,-0.00025979,-3.19e-05,0.0,0 STARLINK-5605,1 55411U 23014W   23331.14425247 -.00003190  00000-0 -25979-3 0  9997,2 55411  70.0016   6.3167 0002674 267.0641  93.0212 14.98310452 46251,6950.253,96.108,573.977,570.26,0.0
55411.0,STARLINK-5605,PAYLOAD,2023-11-27 11:28:24,14.98299232,0.0002205,70.0017,5.4767,252.5386,107.5532,-0.00031732,-3.874e-05,0.0,0 STARLINK-5605,1 55411U 23014W   23331.47806589 -.00003874  00000-0 -31732-3 0  9998,2 55411  70.0017   5.4767 0002205 252.5386 107.5532 14.98299232 46307,6950.288,96.109,573.686,570.621,0.0
55411.0,STARLINK-5605,PAYLOAD,2023-11-28 11:30:24,14.98327173,0.0001672,70.0018,2.9525,279.6253,80.4717,3.1169e-05,2.79e-06,0.0,0 STARLINK-5605,1 55411U 23014W   23332.47944729  .00000279  00000-0  31169-4 0  9997,2 55411  70.0018   2.9525 0001672 279.6253  80.4717 14.98327173 46458,6950.202,96.107,573.229,570.905,0.0
55411.0,STARLINK-5605,PAYLOAD,2023-11-29 11:32:23,14.98330277,0.0002361,70.0009,0.4263,258.1638,101.9256,0.00045068,5.288e-05,0.0,0 STARLINK-5605,1 55411U 23014W   23333.48083225  .00005288  00000-0  45068-3 0  9991,2 55411  70.0009   0.4263 0002361 258.1638 101.9256 14.98330277 46608,6950.192,96.107,573.698,570.416,0.0
55411.0,STARLINK-5605,PAYLOAD,2023-11-30 11:34:25,14.98338524,0.0002704,69.9998,357.9004,258.3174,101.7682,5.1378e-06,-3.2e-07,0.0,0 STARLINK-5605,1 55411U 23014W   23334.48223497 -.00000032  00000-0  51378-5 0  9995,2 55411  69.9998 357.9004 0002704 258.3174 101.7682 14.98338524 46753,6950.167,96.106,573.911,570.152,0.0
55411.0,STARLINK-5605,PAYLOAD,2023-12-01 11:36:25,14.98338006,0.0002611,70.0004,355.3745,267.8561,92.2299,-0.00011821,-1.503e-05,0.0,0 STARLINK-5605,1 55411U 23014W   23335.48363365 -.00001503  00000-0 -11821-3 0  9997,2 55411  70.0004 355.3745 0002611 267.8561  92.2299 14.98338006 46900,6950.168,96.106,573.848,570.218,0.0
55411.0,STARLINK-5605,PAYLOAD,2023-12-02 11:38:25,14.98348433,0.0002634,69.9999,352.8492,267.5966,92.4891,0.00013478,1.516e-05,0.0,0 STARLINK-5605,1 55411U 23014W   23336.48501353  .00001516  00000-0  13478-3 0  9991,2 55411  69.9999 352.8492 0002634 267.5966  92.4891 14.98348433 47054,6950.136,96.106,573.832,570.17,0.0
55411.0,STARLINK-5605,PAYLOAD,2023-12-03 03:39:48,14.98362658,0.0002594,69.9984,351.1655,272.4901,87.5961,-0.00095531,-0.00011482,0.0,0 STARLINK-5605,1 55411U 23014W   23337.15263922 -.00011482  00000-0 -95531-3 0  9998,2 55411  69.9984 351.1655 0002594 272.4901  87.5961 14.98362658 47159,6950.092,96.105,573.76,570.154,0.0
55411.0,STARLINK-5605,PAYLOAD,2023-12-03 10:04:21,14.9830618,0.0002332,70.0007,350.4936,253.1449,106.9454,-0.00018448,-2.292e-05,0.0,0 STARLINK-5605,1 55411U 23014W   23337.41969259 -.00002292  00000-0 -18448-3 0  9994,2 55411  70.0007 350.4936 0002332 253.1449 106.9454 14.98306180 47190,6950.267,96.109,573.752,570.511,0.0
55411.0,STARLINK-5605,PAYLOAD,2023-12-04 03:41:49,14.98320737,0.0002446,70.0009,348.6435,248.792,111.2978,-0.00017584,-2.19e-05,0.0,0 STARLINK-5605,1 55411U 23014W   23338.15404831 -.00002190  00000-0 -17584-3 0  9993,2 55411  70.0009 348.6435 0002446 248.7920 111.2978 14.98320737 47302,6950.222,96.108,573.787,570.387,0.0
55411.0,STARLINK-5605,PAYLOAD,2023-12-04 11:42:30,14.98320252,0.0002372,70.0008,347.8019,245.0523,115.039,-0.0001624,-2.029e-05,0.0,0 STARLINK-5605,1 55411U 23014W   23338.48785066 -.00002029  00000-0 -16240-3 0  9990,2 55411  70.0008 347.8019 0002372 245.0523 115.0390 14.98320252 48298,6950.223,96.108,573.737,570.439,0.0
55411.0,STARLINK-5605,PAYLOAD,2023-12-05 03:43:50,14.98313917,0.0002544,70.0005,346.1176,260.8336,99.2535,0.00024615,2.844e-05,0.0,0 STARLINK-5605,1 55411U 23014W   23339.15544730  .00002844  00000-0  24615-3 0  9994,2 55411  70.0005 346.1176 0002544 260.8336  99.2535 14.98313917 47450,6950.243,96.108,573.876,570.339,0.0
55411.0,STARLINK-5605,PAYLOAD,2023-12-05 10:08:22,14.9831935,0.0002572,70.0001,345.4444,261.6646,98.4221,0.00028868,3.352e-05,0.0,0 STARLINK-5605,1 55411U 23014W   23339.42248443  .00003352  00000-0  28868-3 0  9995,2 55411  70.0001 345.4444 0002572 261.6646  98.4221 14.98319350 48439,6950.226,96.108,573.878,570.303,0.0
55411.0,STARLINK-5605,PAYLOAD,2023-12-06 03:45:50,14.98338661,0.0002875,69.9991,343.591,262.7743,97.309,0.00021297,2.45e-05,0.0,0 STARLINK-5605,1 55411U 23014W   23340.15683368  .00002450  00000-0  21297-3 0  9993,2 55411  69.9991 343.5910 0002875 262.7743  97.3090 14.98338661 47603,6950.166,96.106,574.029,570.033,0.0
55411.0,STARLINK-5605,PAYLOAD,2023-12-06 10:10:22,14.98343713,0.0002811,69.9992,342.9178,261.952,98.132,0.00025726,2.979e-05,0.0,0 STARLINK-5605,1 55411U 23014W   23340.42386741  .00002979  00000-0  25726-3 0  9995,2 55411  69.9992 342.9178 0002811 261.9520  98.1320 14.98343713 48584,6950.15,96.106,573.969,570.062,0.0
55411.0,STARLINK-5605,PAYLOAD,2023-12-07 03:47:51,14.98334483,0.0002497,70.0005,341.0685,256.0325,104.0556,-2.5529e-05,-3.98e-06,0.0,0 STARLINK-5605,1 55411U 23014W   23341.15823673 -.00000398  00000-0 -25529-4 0  9993,2 55411  70.0005 341.0685 0002497 256.0325 104.0556 14.98334483 47753,6950.179,96.107,573.779,570.309,0.0
55411.0,STARLINK-5605,PAYLOAD,2023-12-07 10:12:23,14.98333284,0.0002603,69.9997,340.3928,259.7847,100.3018,-5.3865e-05,-7.36e-06,0.0,0 STARLINK-5605,1 55411U 23014W   23341.42527672 -.00000736  00000-0 -53865-4 0  9993,2 55411  69.9997 340.3928 0002603 259.7847 100.3018 14.98333284 48739,6950.183,96.107,573.857,570.239,0.0
55411.0,STARLINK-5605,PAYLOAD,2023-12-08 03:49:52,14.98339353,0.0002808,69.9993,338.5419,261.5411,98.543,-0.00013557,-1.711e-05,0.0,0 STARLINK-5605,1 55411U 23014W   23342.15963096 -.00001711  00000-0 -13557-3 0  9995,2 55411  69.9993 338.5419 0002808 261.5411  98.5430 14.98339353 47901,6950.164,96.106,573.981,570.077,0.0
55411.0,STARLINK-5605,PAYLOAD,2023-12-08 10:14:24,14.98338059,0.0002627,69.9996,337.8674,262.9115,97.1746,-0.00011481,-1.463e-05,0.0,0 STARLINK-5605,1 55411U 23014W   23342.42667000 -.00001463  00000-0 -11481-3 0  9999,2 55411  69.9996 337.8674 0002627 262.9115  97.1746 14.98338059 48889,6950.168,96.106,573.859,570.207,0.0
55411.0,STARLINK-5605,PAYLOAD,2023-12-09 03:51:52,14.983601,0.0002401,69.9995,336.0153,267.3368,92.7516,-0.00041818,-5.083e-05,0.0,0 STARLINK-5605,1 55411U 23014W   23343.16102356 -.00005083  00000-0 -41818-3 0  9998,2 55411  69.9995 336.0153 0002401 267.3368  92.7516 14.98360100 48057,6950.1,96.105,573.634,570.296,0.0
